[{"OBJECT_NAME":"LYNK TOWER 5","OBJECT_ID":"2024-043Z","EPOCH":"2026-03-09T22:11:51.175104","MEAN_MOTION":15.29454506,"ECCENTRICITY":0.00104056,"INCLINATION":97.5458,"RA_OF_ASC_NODE":204.7305,"ARG_OF_PERICENTER":234.6422,"MEAN_ANOMALY":125.3846,"EPHEMERIS_TYPE":0,"CLASSIFICATION_TYPE":"U","NORAD_CAT_ID":59121,"ELEMENT_SET_NO":999,"REV_AT_EPOCH":11186,"BSTAR":0.00031901545,"MEAN_MOTION_DOT":9.048e-5,"MEAN_MOTION_DDOT":0},{"OBJECT_NAME":"STARLINK-34311","OBJECT_ID":"2025-117D","EPOCH":"2026-03-09T05:49:54.405120","MEAN_MOTION":15.30197645,"ECCENTRICITY":0.00012928,"INCLINATION":53.1622,"RA_OF_ASC_NODE":41.9398,"ARG_OF_PERICENTER":81.7614,"MEAN_ANOMALY":278.3534,"EPHEMERIS_TYPE":0,"CLASSIFICATION_TYPE":"U","NORAD_CAT_ID":64206,"ELEMENT_SET_NO":999,"REV_AT_EPOCH":4448,"BSTAR":0.0011270017,"MEAN_MOTION_DOT":0.00033166,"MEAN_MOTION_DDOT":0}]
